IRIDIUM 106             
1 41917U 17003A   24225.68973510  .00001478  00000+0  52040-3 0  9990
2 41917  86.3998   9.9658 0001924  81.6772 278.4642 14.34228435396671
IRIDIUM 103             
1 41918U 17003B   24225.88635995  .00001102  00000+0  38650-3 0  9990
2 41918  86.3999   9.7855 0002500  88.4285 271.7198 14.34225874396738
IRIDIUM 109             
1 41919U 17003C   24225.47409679  .00001624  00000+0  57260-3 0  9991
2 41919  86.4000  10.0059 0002447  98.6255 261.5218 14.34221550396630
IRIDIUM 102             
1 41920U 17003D   24225.44238403  .00000397  00000+0  13479-3 0  9995
2 41920  86.4001   9.9569 0002110  97.6578 262.4857 14.34219311396710
IRIDIUM 105             
1 41921U 17003E   24225.76192209  .00001631  00000+0  57512-3 0  9992
2 41921  86.4019 338.2759 0002294  89.8610 270.2849 14.34237793398615
IRIDIUM 104             
1 41922U 17003F   24225.38530076  .00000176  00000+0  55722-4 0  9994
2 41922  86.3994  10.0124 0002443  94.2786 265.8689 14.34216230396699
IRIDIUM 114             
1 41923U 17003G   24225.39164865  .00000336  00000+0  11303-3 0  9999
2 41923  86.3999   9.9964 0002052  88.4194 271.7237 14.34214856396673
IRIDIUM 108             
1 41924U 17003H   24225.35016468  .00000058  00000+0  13749-4 0  9999
2 41924  86.3987 338.3653 0001821  70.4117 289.7275 14.34219273398529
